start=new Date('2023-02-01T00:00:00.000Z').valueOf();
sats=[{"MEAN_ANOMALY":"111.6433","TIME_SYSTEM":"UTC","SEMIMAJOR_AXIS":"6941.133","NORAD_CAT_ID":"53505","REF_FRAME":"TEME","APOAPSIS":"563.410","SITE":"AFWTR","DECAY_DATE":null,"ECCENTRICITY":"0.00005930","INCLINATION":"97.6526","RA_OF_ASC_NODE":"154.3407","COUNTRY_CODE":"US","ARG_OF_PERICENTER":"248.4728","LAUNCH_DATE":"2022-08-12","OBJECT_ID":"2022-099AS","CENTER_NAME":"EARTH","OBJECT_TYPE":"PAYLOAD","EPHEMERIS_TYPE":"0","PERIOD":"95.919","MEAN_MOTION_DOT":"0.00001722","OBJECT_NAME":"STARLINK-4446","BSTAR":"0.00013861000000","MEAN_MOTION_DDOT":"0.0000000000000","MEAN_MOTION":"15.01264448","EPOCH":"2023-01-31T07:25:53.747040","FILE":"3766730","GP_ID":"224103182","MEAN_ELEMENT_THEORY":"SGP4","REV_AT_EPOCH":"2618","TLE_LINE2":"2 53505  97.6526 154.3407 0000593 248.4728 111.6433 15.01264448 26182","TLE_LINE1":"1 53505U 22099AS  23031.30964985  .00001722  00000-0  13861-3 0  9997","PERIAPSIS":"562.587","RCS_SIZE":"MEDIUM","ELEMENT_SET_NO":"999","CLASSIFICATION_TYPE":"U"},{"MEAN_MOTION":"15.01256000","MEAN_MOTION_DDOT":"0.0000000000000","BSTAR":"-0.00003105800000","OBJECT_NAME":"STARLINK-4437","PERIOD":"95.920","EPHEMERIS_TYPE":"0","MEAN_MOTION_DOT":"-0.00000458","ELEMENT_SET_NO":"999","RCS_SIZE":"LARGE","CLASSIFICATION_TYPE":"U","TLE_LINE2":"2 53506  97.6545 154.6710 0000504  16.7219 343.4022 15.01256000 25999","REV_AT_EPOCH":"2599","PERIAPSIS":"562.674","TLE_LINE1":"1 53506U 22099AT  23031.64501387 -.00000458  00000-0 -31058-4 0  9994","GP_ID":"224129333","MEAN_ELEMENT_THEORY":"SGP4","EPOCH":"2023-01-31T15:28:49.198368","FILE":"3766747","SITE":"AFWTR","DECAY_DATE":null,"APOAPSIS":"563.374","SEMIMAJOR_AXIS":"6941.159","REF_FRAME":"TEME","NORAD_CAT_ID":"53506","MEAN_ANOMALY":"343.4022","TIME_SYSTEM":"UTC","OBJECT_TYPE":"PAYLOAD","OBJECT_ID":"2022-099AT","LAUNCH_DATE":"2022-08-12","CENTER_NAME":"EARTH","RA_OF_ASC_NODE":"154.6710","ARG_OF_PERICENTER":"16.7219","COUNTRY_CODE":"US","INCLINATION":"97.6545","ECCENTRICITY":"0.00005040"},{"PERIAPSIS":"561.864","TLE_LINE1":"1 53507U 22099AU  23031.77435180 -.00003088  00000-0 -23583-3 0  9991","TLE_LINE2":"2 53507  97.6538 154.8004 0001559 250.4638 109.6418 15.01281395 26013","REV_AT_EPOCH":"2601","CLASSIFICATION_TYPE":"U","ELEMENT_SET_NO":"999","RCS_SIZE":"LARGE","FILE":"3766747","EPOCH":"2023-01-31T18:35:03.995520","MEAN_ELEMENT_THEORY":"SGP4","GP_ID":"224130083","MEAN_MOTION":"15.01281395","MEAN_MOTION_DDOT":"0.0000000000000","MEAN_MOTION_DOT":"-0.00003088","PERIOD":"95.918","EPHEMERIS_TYPE":"0","BSTAR":"-0.00023583000000","OBJECT_NAME":"STARLINK-4444","CENTER_NAME":"EARTH","OBJECT_ID":"2022-099AU","LAUNCH_DATE":"2022-08-12","OBJECT_TYPE":"PAYLOAD","INCLINATION":"97.6538","ECCENTRICITY":"0.00015590","ARG_OF_PERICENTER":"250.4638","COUNTRY_CODE":"US","RA_OF_ASC_NODE":"154.8004","APOAPSIS":"564.028","DECAY_DATE":null,"SITE":"AFWTR","TIME_SYSTEM":"UTC","MEAN_ANOMALY":"109.6418","REF_FRAME":"TEME","NORAD_CAT_ID":"53507","SEMIMAJOR_AXIS":"6941.081"},{"SITE":"AFWTR","DECAY_DATE":null,"APOAPSIS":"563.384","SEMIMAJOR_AXIS":"6941.153","NORAD_CAT_ID":"53508","REF_FRAME":"TEME","MEAN_ANOMALY":"101.2369","TIME_SYSTEM":"UTC","OBJECT_TYPE":"PAYLOAD","LAUNCH_DATE":"2022-08-12","OBJECT_ID":"2022-099AV","CENTER_NAME":"EARTH","RA_OF_ASC_NODE":"154.6734","COUNTRY_CODE":"US","ARG_OF_PERICENTER":"258.8796","ECCENTRICITY":"0.00005280","INCLINATION":"97.6546","MEAN_MOTION_DDOT":"0.0000000000000","MEAN_MOTION":"15.01258019","OBJECT_NAME":"STARLINK-4443","BSTAR":"-0.00003433300000","EPHEMERIS_TYPE":"0","PERIOD":"95.920","MEAN_MOTION_DOT":"-0.00000500","RCS_SIZE":"LARGE","ELEMENT_SET_NO":"999","CLASSIFICATION_TYPE":"U","REV_AT_EPOCH":"2599","TLE_LINE2":"2 53508  97.6546 154.6734 0000528 258.8796 101.2369 15.01258019 25999","TLE_LINE1":"1 53508U 22099AV  23031.64476292 -.00000500  00000-0 -34333-4 0  9999","PERIAPSIS":"562.651","GP_ID":"224128831","MEAN_ELEMENT_THEORY":"SGP4","EPOCH":"2023-01-31T15:28:27.516288","FILE":"3766747"},{"ELEMENT_SET_NO":"999","RCS_SIZE":"LARGE","CLASSIFICATION_TYPE":"U","TLE_LINE2":"2 53509  97.6556 154.3311 0001148 279.0074  81.1020 15.01272471 25945","REV_AT_EPOCH":"2594","PERIAPSIS":"562.177","TLE_LINE1":"1 53509U 22099AW  23031.30434327 -.00001026  00000-0 -75283-4 0  9999","GP_ID":"224098217","MEAN_ELEMENT_THEORY":"SGP4","EPOCH":"2023-01-31T07:18:15.258528","FILE":"3766475","MEAN_MOTION":"15.01272471","MEAN_MOTION_DDOT":"0.0000000000000","BSTAR":"-0.00007528300000","OBJECT_NAME":"STARLINK-4402","PERIOD":"95.919","EPHEMERIS_TYPE":"0","MEAN_MOTION_DOT":"-0.00001026","OBJECT_TYPE":"PAYLOAD","OBJECT_ID":"2022-099AW","LAUNCH_DATE":"2022-08-12","CENTER_NAME":"EARTH","RA_OF_ASC_NODE":"154.3311","ARG_OF_PERICENTER":"279.0074","COUNTRY_CODE":"US","INCLINATION":"97.6556","ECCENTRICITY":"0.00011480","SITE":"AFWTR","DECAY_DATE":null,"APOAPSIS":"563.770","SEMIMAJOR_AXIS":"6941.108","REF_FRAME":"TEME","NORAD_CAT_ID":"53509","MEAN_ANOMALY":"81.1020","TIME_SYSTEM":"UTC"},{"CLASSIFICATION_TYPE":"U","ELEMENT_SET_NO":"999","RCS_SIZE":"LARGE","PERIAPSIS":"562.303","TLE_LINE1":"1 53510U 22099AX  23031.77250977  .00000989  00000-0  81570-4 0  9990","TLE_LINE2":"2 53510  97.6559 154.7937 0000996 268.7529  91.3581 15.01265754 26018","REV_AT_EPOCH":"2601","MEAN_ELEMENT_THEORY":"SGP4","GP_ID":"224129833","FILE":"3766747","EPOCH":"2023-01-31T18:32:24.844128","MEAN_MOTION":"15.01265754","MEAN_MOTION_DDOT":"0.0000000000000","BSTAR":"0.00008157000000","OBJECT_NAME":"STARLINK-4441","MEAN_MOTION_DOT":"0.00000989","PERIOD":"95.919","EPHEMERIS_TYPE":"0","OBJECT_TYPE":"PAYLOAD","CENTER_NAME":"EARTH","OBJECT_ID":"2022-099AX","LAUNCH_DATE":"2022-08-12","ARG_OF_PERICENTER":"268.7529","COUNTRY_CODE":"US","RA_OF_ASC_NODE":"154.7937","INCLINATION":"97.6559","ECCENTRICITY":"0.00009960","DECAY_DATE":null,"SITE":"AFWTR","APOAPSIS":"563.685","NORAD_CAT_ID":"53510","REF_FRAME":"TEME","SEMIMAJOR_AXIS":"6941.129","TIME_SYSTEM":"UTC","MEAN_ANOMALY":"91.3581"},{"OBJECT_TYPE":"PAYLOAD","OBJECT_ID":"2022-101A","LAUNCH_DATE":"2022-08-19","CENTER_NAME":"EARTH","RA_OF_ASC_NODE":"119.2338","ARG_OF_PERICENTER":"90.1068","COUNTRY_CODE":"US","INCLINATION":"53.2188","ECCENTRICITY":"0.00012280","SITE":"AFETR","DECAY_DATE":null,"APOAPSIS":"540.533","SEMIMAJOR_AXIS":"6917.819","NORAD_CAT_ID":"53527","REF_FRAME":"TEME","MEAN_ANOMALY":"270.0065","TIME_SYSTEM":"UTC","ELEMENT_SET_NO":"999","RCS_SIZE":"LARGE","CLASSIFICATION_TYPE":"U","TLE_LINE2":"2 53527  53.2188 119.2338 0001228  90.1068 270.0065 15.08860120 25159","REV_AT_EPOCH":"2515","PERIAPSIS":"538.834","TLE_LINE1":"1 53527U 22101A   23031.93817255  .00009702  00000-0  62650-3 0  9997","GP_ID":"224129335","MEAN_ELEMENT_THEORY":"SGP4","EPOCH":"2023-01-31T22:30:58.108320","FILE":"3766747","MEAN_MOTION":"15.08860120","MEAN_MOTION_DDOT":"0.0000000000000","BSTAR":"0.00062650000000","OBJECT_NAME":"STARLINK-4511","PERIOD":"95.436","EPHEMERIS_TYPE":"0","MEAN_MOTION_DOT":"0.00009702"},{"TLE_LINE2":"2 53528  53.2170 120.4128 0001280  82.9523 277.1615 15.08842506 25118","REV_AT_EPOCH":"2511","PERIAPSIS":"538.852","TLE_LINE1":"1 53528U 22101B   23031.67688093  .00001751  00000-0  12806-3 0  9999","ELEMENT_SET_NO":"999","RCS_SIZE":"LARGE","CLASSIFICATION_TYPE":"U","EPOCH":"2023-01-31T16:14:42.512352","FILE":"3766747","GP_ID":"224130085","MEAN_ELEMENT_THEORY":"SGP4","MEAN_MOTION":"15.08842506","MEAN_MOTION_DDOT":"0.0000000000000","PERIOD":"95.437","EPHEMERIS_TYPE":"0","MEAN_MOTION_DOT":"0.00001751","BSTAR":"0.00012806000000","OBJECT_NAME":"STARLINK-4503","OBJECT_ID":"2022-101B","LAUNCH_DATE":"2022-08-19","CENTER_NAME":"EARTH","OBJECT_TYPE":"PAYLOAD","INCLINATION":"53.2170","ECCENTRICITY":"0.00012800","RA_OF_ASC_NODE":"120.4128","ARG_OF_PERICENTER":"82.9523","COUNTRY_CODE":"US","APOAPSIS":"540.623","SITE":"AFETR","DECAY_DATE":null,"MEAN_ANOMALY":"277.1615","TIME_SYSTEM":"UTC","SEMIMAJOR_AXIS":"6917.873","REF_FRAME":"TEME","NORAD_CAT_ID":"53528"},{"INCLINATION":"53.2193","ECCENTRICITY":"0.00012970","ARG_OF_PERICENTER":"109.4808","COUNTRY_CODE":"US","RA_OF_ASC_NODE":"119.2537","CENTER_NAME":"EARTH","OBJECT_ID":"2022-101C","LAUNCH_DATE":"2022-08-19","OBJECT_TYPE":"PAYLOAD","TIME_SYSTEM":"UTC","MEAN_ANOMALY":"250.6324","REF_FRAME":"TEME","NORAD_CAT_ID":"53529","SEMIMAJOR_AXIS":"6917.868","APOAPSIS":"540.631","DECAY_DATE":null,"SITE":"AFETR","FILE":"3766747","EPOCH":"2023-01-31T22:25:38.938944","MEAN_ELEMENT_THEORY":"SGP4","GP_ID":"224128833","PERIAPSIS":"538.836","TLE_LINE1":"1 53529U 22101C   23031.93447846  .00000246  00000-0  33557-4 0  9993","TLE_LINE2":"2 53529  53.2193 119.2537 0001297 109.4808 250.6324 15.08843894 25151","REV_AT_EPOCH":"2515","CLASSIFICATION_TYPE":"U","ELEMENT_SET_NO":"999","RCS_SIZE":"LARGE","MEAN_MOTION_DOT":"0.00000246","PERIOD":"95.437","EPHEMERIS_TYPE":"0","BSTAR":"0.00003355700000","OBJECT_NAME":"STARLINK-4478","MEAN_MOTION":"15.08843894","MEAN_MOTION_DDOT":"0.0000000000000"},{"REV_AT_EPOCH":"2515","TLE_LINE2":"2 53530  53.2173 119.2827 0001023  94.6629 265.4480 15.08837809 25152","TLE_LINE1":"1 53530U 22101D   23031.92808325  .00000226  00000-0  32310-4 0  9991","PERIAPSIS":"539.044","RCS_SIZE":"LARGE","ELEMENT_SET_NO":"999","CLASSIFICATION_TYPE":"U","EPOCH":"2023-01-31T22:16:26.392800","FILE":"3766747","GP_ID":"224128584","MEAN_ELEMENT_THEORY":"SGP4","MEAN_MOTION_DDOT":"0.0000000000000","MEAN_MOTION":"15.08837809","EPHEMERIS_TYPE":"0","PERIOD":"95.438","MEAN_MOTION_DOT":"0.00000226","OBJECT_NAME":"STARLINK-4482","BSTAR":"0.00003231000000","LAUNCH_DATE":"2022-08-19","OBJECT_ID":"2022-101D","CENTER_NAME":"EARTH","OBJECT_TYPE":"PAYLOAD","ECCENTRICITY":"0.00010230","INCLINATION":"53.2173","RA_OF_ASC_NODE":"119.2827","COUNTRY_CODE":"US","ARG_OF_PERICENTER":"94.6629","APOAPSIS":"540.460","SITE":"AFETR","DECAY_DATE":null,"MEAN_ANOMALY":"265.4480","TIME_SYSTEM":"UTC","SEMIMAJOR_AXIS":"6917.887","NORAD_CAT_ID":"53530","REF_FRAME":"TEME"}];
